GLOBALSTAR M084         
1 38040U 11080A   23351.12781941 -.00000071  00000+0  18250-3 0  9999
2 38040  52.0015 276.9686 0000573  36.5936  68.3377 12.62269165553457
GLOBALSTAR M080         
1 38041U 11080B   23351.81136958 -.00000074  00000+0  16580-3 0  9995
2 38041  52.0066 276.3021 0000392  35.7461  56.7038 12.62267332553802
GLOBALSTAR M082         
1 38042U 11080C   23350.88152693 -.00000073  00000+0  16939-3 0  9993
2 38042  52.0065 234.5193 0001612  70.7666  55.4858 12.62264379554254
GLOBALSTAR M092         
1 38043U 11080D   23351.24604692 -.00000099  00000+0  25312-4 0  9990
2 38043  52.0107 323.7573 0000424   4.7057  98.1343 12.62247586552753
GLOBALSTAR M090         
1 38044U 11080E   23350.98185719 -.00000085  00000+0  10465-3 0  9992
2 38044  51.9873 228.7281 0001292  74.9330  28.0974 12.62264684554380
GLOBALSTAR M086         
1 38045U 11080F   23351.00946854 -.00000079  00000+0  14082-3 0  9994
2 38045  51.9883 229.1541 0001124 124.8728 342.7598 12.62265696554333
GLOBALSTAR M097         
1 39072U 13005A   23351.72473231 -.00000109  00000+0 -29022-4 0  9993
2 39072  52.0025 140.9627 0001320 108.8376 251.2634 12.62273601501756
GLOBALSTAR M093         
1 39073U 13005B   23351.69818184 -.00000101  00000+0  14706-4 0  9994
2 39073  51.9791 135.2218 0001475 117.0681 243.0336 12.62278289501744
